

*******************************************************************************
Ephemeris / WWW_USER Mon Apr  3 08:54:02 2023 Pasadena, USA      / Horizons
*******************************************************************************
Target body name: Jupiter (599)                   {source: jup365_merged}
Center body name: Solar System Barycenter (0)     {source: DE441}
Center-site name: BODY CENTER
*******************************************************************************
Start time      : A.D. 2017-Oct-14 10:00:00.0000 TDB
Stop  time      : A.D. 2018-Jan-17 10:00:00.0000 TDB
Step-size       : 60 minutes
*******************************************************************************
Center geodetic : 0.0, 0.0, 0.0                   {E-lon(deg),Lat(deg),Alt(km)}
Center cylindric: 0.0, 0.0, 0.0                   {E-lon(deg),Dxy(km),Dz(km)}
Center radii    : (undefined)
Output units    : KM-D
Calendar mode   : Mixed Julian/Gregorian
Output type     : GEOMETRIC cartesian states
Output format   : 1 (position only)
Reference frame : ICRF
*******************************************************************************
            JDTDB,            Calendar Date (TDB),                      X,                      Y,                      Z,
**************************************************************************************************************************
$$SOE
2458069.666666667, A.D. 2017-Nov-12 04:00:00.0000, -6.699093397376357E+08, -4.289626385743399E+08, -1.675659123531759E+08,
2458069.708333333, A.D. 2017-Nov-12 05:00:00.0000, -6.698832553584327E+08, -4.289959869705662E+08, -1.675808412595265E+08,
2458069.750000000, A.D. 2017-Nov-12 06:00:00.0000, -6.698571685391853E+08, -4.290293337869921E+08, -1.675957695262415E+08,
2458069.791666667, A.D. 2017-Nov-12 07:00:00.0000, -6.698310793232108E+08, -4.290626789835123E+08, -1.676106971348292E+08,
2458069.833333333, A.D. 2017-Nov-12 08:00:00.0000, -6.698049877596134E+08, -4.290960225264487E+08, -1.676256240699511E+08,
2458069.875000000, A.D. 2017-Nov-12 09:00:00.0000, -6.697788939021337E+08, -4.291293643891938E+08, -1.676405503197129E+08,
2458069.916666667, A.D. 2017-Nov-12 10:00:00.0000, -6.697527978079427E+08, -4.291627045527043E+08, -1.676554758758799E+08,
2458069.958333333, A.D. 2017-Nov-12 11:00:00.0000, -6.697266995363973E+08, -4.291960430058398E+08, -1.676704007340201E+08,
2458070.000000000, A.D. 2017-Nov-12 12:00:00.0000, -6.697005991477698E+08, -4.292293797455473E+08, -1.676853248935729E+08,
2458070.041666667, A.D. 2017-Nov-12 13:00:00.0000, -6.696744967019662E+08, -4.292627147768911E+08, -1.677002483578431E+08,
2458070.083333333, A.D. 2017-Nov-12 14:00:00.0000, -6.696483922572474E+08, -4.292960481129240E+08, -1.677151711339199E+08,
2458070.125000000, A.D. 2017-Nov-12 15:00:00.0000, -6.696222858689755E+08, -4.293293797744014E+08, -1.677300932325213E+08,
2458070.166666667, A.D. 2017-Nov-12 16:00:00.0000, -6.695961775884049E+08, -4.293627097893376E+08, -1.677450146677642E+08,
2458070.208333333, A.D. 2017-Nov-12 17:00:00.0000, -6.695700674615468E+08, -4.293960381924088E+08, -1.677599354568621E+08,
2458070.250000000, A.D. 2017-Nov-12 18:00:00.0000, -6.695439555281310E+08, -4.294293650242099E+08, -1.677748556197549E+08,
2458070.291666667, A.D. 2017-Nov-12 19:00:00.0000, -6.695178418206910E+08, -4.294626903303744E+08, -1.677897751786759E+08,
2458070.333333333, A.D. 2017-Nov-12 20:00:00.0000, -6.694917263637966E+08, -4.294960141605752E+08, -1.678046941576630E+08,
2458070.375000000, A.D. 2017-Nov-12 21:00:00.0000, -6.694656091734558E+08, -4.295293365674218E+08, -1.678196125820249E+08,
2458070.416666667, A.D. 2017-Nov-12 22:00:00.0000, -6.694394902567030E+08, -4.295626576052792E+08, -1.678345304777709E+08,
2458070.458333333, A.D. 2017-Nov-12 23:00:00.0000, -6.694133696113876E+08, -4.295959773290330E+08, -1.678494478710200E+08,
2458070.500000000, A.D. 2017-Nov-13 00:00:00.0000, -6.693872472261728E+08, -4.296292957928287E+08, -1.678643647873999E+08,
2458070.541666667, A.D. 2017-Nov-13 01:00:00.0000, -6.693611230807468E+08, -4.296626130488161E+08, -1.678792812514511E+08,
2458070.583333333, A.D. 2017-Nov-13 02:00:00.0000, -6.693349971462475E+08, -4.296959291459281E+08, -1.678941972860526E+08,
2458070.625000000, A.D. 2017-Nov-13 03:00:00.0000, -6.693088693858923E+08, -4.297292441287257E+08, -1.679091129118803E+08,
2458070.666666667, A.D. 2017-Nov-13 04:00:00.0000, -6.692827397558011E+08, -4.297625580363377E+08, -1.679240281469152E+08,
2458070.708333333, A.D. 2017-Nov-13 05:00:00.0000, -6.692566082059963E+08, -4.297958709015239E+08, -1.679389430060116E+08,
2458070.750000000, A.D. 2017-Nov-13 06:00:00.0000, -6.692304746815552E+08, -4.298291827498860E+08, -1.679538575005391E+08,
2458070.791666667, A.D. 2017-Nov-13 07:00:00.0000, -6.692043391238892E+08, -4.298624935992479E+08, -1.679687716381077E+08,
2458070.833333333, A.D. 2017-Nov-13 08:00:00.0000, -6.691782014721183E+08, -4.298958034592231E+08, -1.679836854223822E+08,
2458070.875000000, A.D. 2017-Nov-13 09:00:00.0000, -6.691520616645043E+08, -4.299291123309816E+08, -1.679985988529936E+08,
2458070.916666667, A.D. 2017-Nov-13 10:00:00.0000, -6.691259196399086E+08, -4.299624202072228E+08, -1.680135119255488E+08,
2458070.958333333, A.D. 2017-Nov-13 11:00:00.0000, -6.690997753392328E+08, -4.299957270723564E+08, -1.680284246317392E+08,
2458071.000000000, A.D. 2017-Nov-13 12:00:00.0000, -6.690736287068076E+08, -4.300290329028872E+08, -1.680433369595451E+08,
2458071.041666667, A.D. 2017-Nov-13 13:00:00.0000, -6.690474796916900E+08, -4.300623376679910E+08, -1.680582488935310E+08,
2458071.083333333, A.D. 2017-Nov-13 14:00:00.0000, -6.690213282488365E+08, -4.300956413302685E+08, -1.680731604152220E+08,
2458071.125000000, A.D. 2017-Nov-13 15:00:00.0000, -6.689951743401242E+08, -4.301289438466516E+08, -1.680880715035519E+08,
2458071.166666667, A.D. 2017-Nov-13 16:00:00.0000, -6.689690179351932E+08, -4.301622451694384E+08, -1.681029821353695E+08,
2458071.208333333, A.D. 2017-Nov-13 17:00:00.0000, -6.689428590120944E+08, -4.301955452474261E+08, -1.681178922859877E+08,
2458071.250000000, A.D. 2017-Nov-13 18:00:00.0000, -6.689166975577327E+08, -4.302288440271090E+08, -1.681328019297615E+08,
2458071.291666667, A.D. 2017-Nov-13 19:00:00.0000, -6.688905335681005E+08, -4.302621414539101E+08, -1.681477110406782E+08,
2458071.333333333, A.D. 2017-Nov-13 20:00:00.0000, -6.688643670483050E+08, -4.302954374734148E+08, -1.681626195929460E+08,
2458071.375000000, A.D. 2017-Nov-13 21:00:00.0000, -6.688381980123973E+08, -4.303287320325787E+08, -1.681775275615660E+08,
2458071.416666667, A.D. 2017-Nov-13 22:00:00.0000, -6.688120264830132E+08, -4.303620250808866E+08, -1.681924349228795E+08,
2458071.458333333, A.D. 2017-Nov-13 23:00:00.0000, -6.687858524908416E+08, -4.303953165714449E+08, -1.682073416550799E+08,
2458071.500000000, A.D. 2017-Nov-14 00:00:00.0000, -6.687596760739317E+08, -4.304286064619966E+08, -1.682222477386852E+08,
2458071.541666667, A.D. 2017-Nov-14 01:00:00.0000, -6.687334972768518E+08, -4.304618947158481E+08, -1.682371531569662E+08,
2458071.583333333, A.D. 2017-Nov-14 02:00:00.0000, -6.687073161497129E+08, -4.304951813027005E+08, -1.682520578963270E+08,
2458071.625000000, A.D. 2017-Nov-14 03:00:00.0000, -6.686811327470733E+08, -4.305284661993611E+08, -1.682669619466259E+08,
2458071.666666667, A.D. 2017-Nov-14 04:00:00.0000, -6.686549471267494E+08, -4.305617493902893E+08, -1.682818653014172E+08,
2458071.708333333, A.D. 2017-Nov-14 05:00:00.0000, -6.686287593485892E+08, -4.305950308678846E+08, -1.682967679580689E+08,
2458071.750000000, A.D. 2017-Nov-14 06:00:00.0000, -6.686025694733082E+08, -4.306283106323385E+08, -1.683116699176771E+08,
2458071.791666667, A.D. 2017-Nov-14 07:00:00.0000, -6.685763775614591E+08, -4.306615886918285E+08, -1.683265711851383E+08,
2458071.833333333, A.D. 2017-Nov-14 08:00:00.0000, -6.685501836707884E+08, -4.306948650634257E+08, -1.683414717695402E+08,
2458071.875000000, A.D. 2017-Nov-14 09:00:00.0000, -6.685239878561448E+08, -4.307281397716362E+08, -1.683563716834674E+08,
2458071.916666667, A.D. 2017-Nov-14 10:00:00.0000, -6.684977901684104E+08, -4.307614128482277E+08, -1.683712709428985E+08,
2458071.958333333, A.D. 2017-Nov-14 11:00:00.0000, -6.684715906529400E+08, -4.307946843317369E+08, -1.683861695669485E+08,
2458072.000000000, A.D. 2017-Nov-14 12:00:00.0000, -6.684453893484048E+08, -4.308279542667339E+08, -1.684010675775007E+08,
2458072.041666667, A.D. 2017-Nov-14 13:00:00.0000, -6.684191862858813E+08, -4.308612227029254E+08, -1.684159649987650E+08,
2458072.083333333, A.D. 2017-Nov-14 14:00:00.0000, -6.683929814881085E+08, -4.308944896941445E+08, -1.684308618567836E+08,
2458072.125000000, A.D. 2017-Nov-14 15:00:00.0000, -6.683667749688905E+08, -4.309277552972464E+08, -1.684457581788957E+08,
2458072.166666667, A.D. 2017-Nov-14 16:00:00.0000, -6.683405667326528E+08, -4.309610195709263E+08, -1.684606539931663E+08,
2458072.208333333, A.D. 2017-Nov-14 17:00:00.0000, -6.683143567741711E+08, -4.309942825744765E+08, -1.684755493277897E+08,
2458072.250000000, A.D. 2017-Nov-14 18:00:00.0000, -6.682881450784963E+08, -4.310275443665014E+08, -1.684904442104756E+08,
2458072.291666667, A.D. 2017-Nov-14 19:00:00.0000, -6.682619316210908E+08, -4.310608050036179E+08, -1.685053386678321E+08,
2458072.333333333, A.D. 2017-Nov-14 20:00:00.0000, -6.682357163681877E+08, -4.310940645391707E+08, -1.685202327247586E+08,
2458072.375000000, A.D. 2017-Nov-14 21:00:00.0000, -6.682094992773744E+08, -4.311273230219970E+08, -1.685351264038665E+08,
2458072.416666667, A.D. 2017-Nov-14 22:00:00.0000, -6.681832802983887E+08, -4.311605804952733E+08, -1.685500197249420E+08,
2458072.458333333, A.D. 2017-Nov-14 23:00:00.0000, -6.681570593741132E+08, -4.311938369954800E+08, -1.685649127044675E+08,
2458072.500000000, A.D. 2017-Nov-15 00:00:00.0000, -6.681308364417417E+08, -4.312270925515104E+08, -1.685798053552160E+08,
